0 FENGYUN 1C DEB
1 30542U 99025AKG 13281.53040986 -.00000057  00000-0 -75518-5 0   210
2 30542 099.0859 267.7511 0028868 136.1915 350.3161 14.05123970344386
0 FENGYUN 1C DEB
1 30542U 99025AKG 13283.93717789  .00000136  00000-0  11166-3 0   222
2 30542 099.0859 270.1618 0028881 129.8435 284.4888 14.05122942344722
0 FENGYUN 1C DEB
1 30542U 99025AKG 13286.44940064  .00000320  00000-0  22553-3 0   233
2 30542 099.0860 272.6778 0028938 123.2193 032.0765 14.05122376345071
0 FENGYUN 1C DEB
1 30542U 99025AKG 13288.79252581  .00000462  00000-0  31276-3 0   243
2 30542 099.0866 275.0243 0028965 116.9229 004.4336 14.05123650345400
0 FENGYUN 1C DEB
1 30542U 99025AKG 13291.49861791  .00000374  00000-0  25875-3 0   254
2 30542 099.0876 277.7342 0029004 109.6255 012.8399 14.05127088345785
0 FENGYUN 1C DEB
1 30542U 99025AKG 13294.19220057  .00000180  00000-0  13859-3 0   263
2 30542 099.0880 280.4322 0029080 102.3270 318.0301 14.05130791346162
